[{"OBJECT_NAME":"GLOBALSTAR M092","OBJECT_ID":"2011-080D","EPOCH":"2026-03-09T05:42:31.536864","MEAN_MOTION":12.62264368,"ECCENTRICITY":4.66e-5,"INCLINATION":52.0113,"RA_OF_ASC_NODE":9.1283,"ARG_OF_PERICENTER":74.5582,"MEAN_ANOMALY":71.0754,"EPHEMERIS_TYPE":0,"CLASSIFICATION_TYPE":"U","NORAD_CAT_ID":38043,"ELEMENT_SET_NO":999,"REV_AT_EPOCH":65542,"BSTAR":8.2790578e-5,"MEAN_MOTION_DOT":-8.9e-7,"MEAN_MOTION_DDOT":0},{"OBJECT_NAME":"COSMOS 2167","OBJECT_ID":"1991-077C","EPOCH":"2026-03-09T16:34:49.071936","MEAN_MOTION":12.64288479,"ECCENTRICITY":0.00063589,"INCLINATION":82.6049,"RA_OF_ASC_NODE":304.224,"ARG_OF_PERICENTER":314.6654,"MEAN_ANOMALY":100.9822,"EPHEMERIS_TYPE":0,"CLASSIFICATION_TYPE":"U","NORAD_CAT_ID":21781,"ELEMENT_SET_NO":999,"REV_AT_EPOCH":58337,"BSTAR":0.00010628197,"MEAN_MOTION_DOT":3.0e-7,"MEAN_MOTION_DDOT":0}]
